NORAD_CAT_ID,OBJECT_NAME,OBJECT_TYPE,EPOCH,MEAN_MOTION,ECCENTRICITY,INCLINATION,RA_OF_ASC_NODE,ARG_OF_PERICENTER,MEAN_ANOMALY,BSTAR,MEAN_MOTION_DOT,MEAN_MOTION_DDOT,TLE_LINE0,TLE_LINE1,TLE_LINE2,SEMIMAJOR_AXIS,PERIOD,APOGEE,PERIGEE,DECAYED
54206.0,STARLINK-5264,PAYLOAD,2024-03-11 01:35:47,15.08836501,0.0001411,53.2185,349.8738,85.3884,274.727,5.1208e-05,5.27e-06,0.0,0 STARLINK-5264,1 54206U 22141BB  24071.06652272  .00000527  00000-0  51208-4 0  9995,2 54206  53.2185 349.8738 0001411  85.3884 274.7270 15.08836501 76726,6917.891,95.438,540.732,538.78,0.0
54206.0,STARLINK-5264,PAYLOAD,2024-03-11 11:08:06,15.0883788,0.0001235,53.2175,348.0879,74.0215,286.0913,-2.5847e-06,-3.29e-06,0.0,0 STARLINK-5264,1 54206U 22141BB  24071.46396160 -.00000329  00000-0 -25847-5 0  9993,2 54206  53.2175 348.0879 0001235  74.0215 286.0913 15.08837880 76551,6917.887,95.438,540.606,538.898,0.0
54206.0,STARLINK-5264,PAYLOAD,2024-03-12 10:58:52,15.08849634,0.0001314,53.2182,343.632,92.7656,267.3486,-3.2468e-05,-8.05e-06,0.0,0 STARLINK-5264,1 54206U 22141BB  24072.45755550 -.00000805  00000-0 -32468-4 0  9990,2 54206  53.2182 343.6320 0001314  92.7656 267.3486 15.08849634 76934,6917.851,95.437,540.625,538.807,0.0
54206.0,STARLINK-5264,PAYLOAD,2024-03-13 02:52:44,15.08838463,0.0001437,53.2194,340.6572,81.9942,278.1213,4.0249e-05,3.53e-06,0.0,0 STARLINK-5264,1 54206U 22141BB  24073.11996333  .00000353  00000-0  40249-4 0  9992,2 54206  53.2194 340.6572 0001437  81.9942 278.1213 15.08838463 77035,6917.885,95.438,540.744,538.756,0.0
54206.0,STARLINK-5264,PAYLOAD,2024-03-13 10:49:40,15.08834539,0.0001308,53.2189,339.168,82.2244,277.8897,-2.7599e-06,-3.32e-06,0.0,0 STARLINK-5264,1 54206U 22141BB  24073.45116695 -.00000332  00000-0 -27599-5 0  9997,2 54206  53.2189 339.1680 0001308  82.2244 277.8897 15.08834539 76851,6917.897,95.438,540.667,538.857,0.0
54206.0,STARLINK-5264,PAYLOAD,2024-03-13 21:57:22,15.0883277,0.0001265,53.22,337.0847,89.0622,271.0515,3.9892e-05,3.47e-06,0.0,0 STARLINK-5264,1 54206U 22141BB  24073.91484805  .00000347  00000-0  39892-4 0  9991,2 54206  53.2200 337.0847 0001265  89.0622 271.0515 15.08832770 76920,6917.902,95.438,540.643,538.892,0.0
54206.0,STARLINK-5264,PAYLOAD,2024-03-14 02:43:31,15.08844801,0.0001561,53.2187,336.1927,93.0637,267.0534,3.8412e-05,3.23e-06,0.0,0 STARLINK-5264,1 54206U 22141BB  24074.11356193  .00000323  00000-0  38412-4 0  9993,2 54206  53.2187 336.1927 0001561  93.0637 267.0534 15.08844801 76950,6917.866,95.437,540.811,538.651,0.0
54206.0,STARLINK-5264,PAYLOAD,2024-03-14 21:48:09,15.08835159,0.0001617,53.2194,332.6236,77.0422,283.0751,4.2775e-05,3.93e-06,0.0,0 STARLINK-5264,1 54206U 22141BB  24074.90844768  .00000393  00000-0  42775-4 0  9994,2 54206  53.2194 332.6236 0001617  77.0422 283.0751 15.08835159 77077,6917.895,95.438,540.879,538.642,0.0
54206.0,STARLINK-5264,PAYLOAD,2024-03-14 23:23:32,15.08840795,0.0001627,53.219,332.325,77.4257,282.6917,9.493e-09,-2.88e-06,0.0,0 STARLINK-5264,1 54206U 22141BB  24074.97468616 -.00000288  00000-0  94930-8 0  9993,2 54206  53.2190 332.3250 0001627  77.4257 282.6917 15.08840795 77315,6917.878,95.438,540.868,538.617,0.0
54206.0,STARLINK-5264,PAYLOAD,2024-03-15 16:52:47,15.08838742,0.0001431,53.2175,329.0567,91.2159,268.8997,5.9104e-05,6.53e-06,0.0,0 STARLINK-5264,1 54206U 22141BB  24075.70332438  .00000653  00000-0  59104-4 0  9992,2 54206  53.2175 329.0567 0001431  91.2159 268.8997 15.08838742 77199,6917.884,95.438,540.739,538.759,0.0
54206.0,STARLINK-5264,PAYLOAD,2024-03-15 23:14:19,15.088458,0.0001508,53.218,327.8715,92.1195,267.997,6.8725e-07,-2.77e-06,0.0,0 STARLINK-5264,1 54206U 22141BB  24075.96828237 -.00000277  00000-0  68725-6 0  9991,2 54206  53.2180 327.8715 0001508  92.1195 267.9970 15.08845800 77230,6917.863,95.437,540.771,538.684,0.0
54206.0,STARLINK-5264,PAYLOAD,2024-03-16 19:54:20,15.08836259,0.0001542,53.2177,324.0062,102.5034,257.6131,-3.1145e-05,-7.84e-06,0.0,0 STARLINK-5264,1 54206U 22141BB  24076.82940874 -.00000784  00000-0 -31145-4 0  9997,2 54206  53.2177 324.0062 0001542 102.5034 257.6131 15.08836259 77598,6917.892,95.438,540.824,538.69,0.0
54206.0,STARLINK-5264,PAYLOAD,2024-03-16 21:29:44,15.08836676,0.0001602,53.2182,323.709,106.8607,253.2561,-2.9722e-05,-7.61e-06,0.0,0 STARLINK-5264,1 54206U 22141BB  24076.89564835 -.00000761  00000-0 -29722-4 0  9996,2 54206  53.2182 323.7090 0001602 106.8607 253.2561 15.08836676 77379,6917.891,95.438,540.864,538.647,0.0
54206.0,STARLINK-5264,PAYLOAD,2024-03-16 23:05:07,15.08837142,0.0001562,53.2185,323.4124,101.3542,258.7626,-3.0041e-05,-7.66e-06,0.0,0 STARLINK-5264,1 54206U 22141BB  24076.96188851 -.00000766  00000-0 -30041-4 0  9995,2 54206  53.2185 323.4124 0001562 101.3542 258.7626 15.08837142 77382,6917.889,95.438,540.835,538.674,0.0
54206.0,STARLINK-5264,PAYLOAD,2024-03-17 21:20:30,15.08839038,0.0001551,53.2186,319.2495,106.1648,253.9515,1.1574e-05,-1.04e-06,0.0,0 STARLINK-5264,1 54206U 22141BB  24077.88924587 -.00000104  00000-0  11574-4 0  9996,2 54206  53.2186 319.2495 0001551 106.1648 253.9515 15.08839038 77521,6917.883,95.438,540.821,538.675,0.0
54206.0,STARLINK-5264,PAYLOAD,2024-03-18 21:11:17,15.08838424,0.0001368,53.2175,314.786,91.8512,268.2636,4.7659e-05,4.71e-06,0.0,0 STARLINK-5264,1 54206U 22141BB  24078.88284619  .00000471  00000-0  47659-4 0  9991,2 54206  53.2175 314.7860 0001368  91.8512 268.2636 15.08838424 77678,6917.885,95.438,540.697,538.804,0.0
54206.0,STARLINK-5264,PAYLOAD,2024-03-18 22:46:39,15.08862127,0.0001549,53.2179,314.488,120.5414,239.5732,0.00023776,3.5e-05,0.0,0 STARLINK-5264,1 54206U 22141BB  24078.94906594  .00003500  00000-0  23776-3 0  9990,2 54206  53.2179 314.4880 0001549 120.5414 239.5732 15.08862127 77915,6917.813,95.436,540.749,538.606,0.0
54206.0,STARLINK-5264,PAYLOAD,2024-03-19 21:02:04,15.08836725,0.000132,53.2178,310.3267,93.3617,266.7526,-1.6165e-05,-5.45e-06,0.0,0 STARLINK-5264,1 54206U 22141BB  24079.87644570 -.00000545  00000-0 -16165-4 0  9999,2 54206  53.2178 310.3267 0001320  93.3617 266.7526 15.08836725 78051,6917.89,95.438,540.669,538.842,0.0
54206.0,STARLINK-5264,PAYLOAD,2024-03-20 01:48:14,15.08840072,0.0001266,53.2167,309.432,90.8626,269.2511,2.2292e-06,-2.52e-06,0.0,0 STARLINK-5264,1 54206U 22141BB  24080.07516260 -.00000252  00000-0  22292-5 0  9990,2 54206  53.2167 309.4320 0001266  90.8626 269.2511 15.08840072 77858,6917.88,95.438,540.621,538.869,0.0
54206.0,STARLINK-5264,PAYLOAD,2024-03-20 19:17:29,15.08845537,0.0001446,53.2176,306.1573,76.0143,284.101,-0.00033431,-5.605e-05,0.0,0 STARLINK-5264,1 54206U 22141BB  24080.80381789 -.00005605  00000-0 -33431-3 0  9990,2 54206  53.2176 306.1573 0001446  76.0143 284.1010 15.08845537 78191,6917.863,95.437,540.729,538.728,0.0
54206.0,STARLINK-5264,PAYLOAD,2024-03-20 22:28:16,15.08844898,0.0001898,53.2185,305.5611,58.1731,301.9446,-0.00028938,-4.891e-05,0.0,0 STARLINK-5264,1 54206U 22141BB  24080.93629795 -.00004891  00000-0 -28938-3 0  9998,2 54206  53.2185 305.5611 0001898  58.1731 301.9446 15.08844898 77988,6917.865,95.437,541.043,538.417,0.0
54206.0,STARLINK-5264,PAYLOAD,2024-03-21 08:00:31,15.08883621,0.0001,53.2178,303.7828,97.7742,262.3364,3.1929e-05,2.21e-06,0.0,0 STARLINK-5264,1 54206U 22141BB  24081.33369234  .00000221  00000-0  31929-4 0  9998,2 54206  53.2178 303.7828 0001000  97.7742 262.3364 15.08883621 78275,6917.747,95.435,540.304,538.92,0.0
54206.0,STARLINK-5264,PAYLOAD,2024-03-21 14:22:02,15.08873184,5.81e-05,53.2164,302.592,104.4559,255.6497,0.00034123,5.152e-05,0.0,0 STARLINK-5264,1 54206U 22141BB  24081.59864304  .00005152  00000-0  34123-3 0  9990,2 54206  53.2164 302.5920 0000581 104.4559 255.6497 15.08873184 78089,6917.779,95.435,540.046,539.242,0.0
54206.0,STARLINK-5264,PAYLOAD,2024-03-21 20:43:37,15.08844328,0.0001038,53.2166,301.4035,101.3782,258.7327,8.8323e-05,1.118e-05,0.0,0 STARLINK-5264,1 54206U 22141BB  24081.86362712  .00001118  00000-0  88323-4 0  9996,2 54206  53.2166 301.4035 0001038 101.3782 258.7327 15.08844328 78352,6917.867,95.437,540.45,539.014,0.0
54206.0,STARLINK-5264,PAYLOAD,2024-03-21 22:19:01,15.0883483,0.0001178,53.2172,301.1096,92.6367,267.476,1.5651e-05,-3.9e-07,0.0,0 STARLINK-5264,1 54206U 22141BB  24081.92987594 -.00000039  00000-0  15651-4 0  9990,2 54206  53.2172 301.1096 0001178  92.6367 267.4760 15.08834830 78130,6917.896,95.438,540.576,538.946,0.0
54206.0,STARLINK-5264,PAYLOAD,2024-03-21 23:54:24,15.0883189,0.0001257,53.2172,300.8099,86.5561,273.5575,-1.3499e-05,-5.03e-06,0.0,0 STARLINK-5264,1 54206U 22141BB  24081.99611895 -.00000503  00000-0 -13499-4 0  9990,2 54206  53.2172 300.8099 0001257  86.5561 273.5575 15.08831890 78376,6917.905,95.438,540.64,538.901,0.0
54206.0,STARLINK-5264,PAYLOAD,2024-03-22 20:34:26,15.08825155,0.0001305,53.2169,296.9438,91.0607,269.0534,-6.1047e-05,-1.259e-05,0.0,0 STARLINK-5264,1 54206U 22141BB  24082.85725171 -.00001259  00000-0 -61047-4 0  9990,2 54206  53.2169 296.9438 0001305  91.0607 269.0534 15.08825155 78507,6917.926,95.438,540.694,538.888,0.0
54206.0,STARLINK-5264,PAYLOAD,2024-03-23 20:25:12,15.08850398,0.0001436,53.2172,292.4816,102.0804,258.035,-0.00027254,-4.624e-05,0.0,0 STARLINK-5264,1 54206U 22141BB  24083.85084226 -.00004624  00000-0 -27254-3 0  9990,2 54206  53.2172 292.4816 0001436 102.0804 258.0350 15.08850398 78656,6917.849,95.437,540.707,538.72,0.0
54206.0,STARLINK-5264,PAYLOAD,2024-03-23 23:35:59,15.08835118,0.0001503,53.2172,291.8834,121.1485,238.9654,-4.003e-05,-9.25e-06,0.0,0 STARLINK-5264,1 54206U 22141BB  24083.98332402 -.00000925  00000-0 -40030-4 0  9994,2 54206  53.2172 291.8834 0001503 121.1485 238.9654 15.08835118 78670,6917.895,95.438,540.8,538.721,0.0
54206.0,STARLINK-5264,PAYLOAD,2024-03-24 20:15:58,15.0885796,0.0001136,53.2174,288.0182,97.0889,263.0232,0.00036337,5.503e-05,0.0,0 STARLINK-5264,1 54206U 22141BB  24084.84442780  .00005503  00000-0  36337-3 0  9990,2 54206  53.2174 288.0182 0001136  97.0889 263.0232 15.08857960 78802,6917.825,95.436,540.476,538.905,0.0
